ORBCOMM FM20            
1 25416U 98046D   24347.43635720  .00001804  00000+0  65763-3 0  9997
2 25416  44.9951 345.2014 0001972 303.9089  56.1570 14.36436660377406
ORBCOMM FM16            
1 25417U 98046E   24347.56683342  .00002386  00000+0  83072-3 0  9994
2 25417  44.9946 338.4123 0002969  44.2896 315.8189 14.37836242377383
ORBCOMM FM15            
1 25418U 98046F   24347.42979142  .00002481  00000+0  86736-3 0  9992
2 25418  44.9979 343.6759 0002484  41.1783 318.9252 14.37516646377362
ORBCOMM FM14            
1 25419U 98046G   24347.28176920  .00002542  00000+0  88242-3 0  9992
2 25419  44.9967 343.1027 0002168  10.3787 349.7105 14.37803255377302
ORBCOMM FM13            
1 25420U 98046H   24347.45491876  .00001983  00000+0  71322-3 0  9992
2 25420  44.9983 348.5840 0003899  30.7401 329.3675 14.36778205376372
ORBCOMM FM21            
1 25475U 98053A   24347.56478082  .00001907  00000+0  69063-3 0  9991
2 25475  45.0086  72.7954 0001710 267.7195  92.3457 14.36573825370406
ORBCOMM FM22            
1 25476U 98053B   24347.44552721  .00002496  00000+0  87482-3 0  9991
2 25476  45.0081  69.5683 0002638 312.6674  47.3951 14.37386931370395
ORBCOMM FM23            
1 25477U 98053C   24347.44527811  .00002388  00000+0  85095-3 0  9992
2 25477  45.0085  75.6923 0002013 296.3467  63.7173 14.36676154370532
